OBJECT_NAME,OBJECT_ID,EPOCH,MEAN_MOTION,ECCENTRICITY,INCLINATION,RA_OF_ASC_NODE,ARG_OF_PERICENTER,MEAN_ANOMALY,EPHEMERIS_TYPE,CLASSIFICATION_TYPE,NORAD_CAT_ID,ELEMENT_SET_NO,REV_AT_EPOCH,BSTAR,MEAN_MOTION_DOT,MEAN_MOTION_DDOT
ATLAS CENTAUR 2,1963-047A,2026-06-07T00:48:46.164096,14.12496082,.0546026,30.3536,56.1731,147.9577,215.5453,0,U,694,999,14426,.23383E-3,.2016E-4,0
THOR AGENA D R/B,1964-002A,2026-06-07T07:39:40.334112,14.34061732,.00328486,99.1157,176.5187,359.5959,0.5192,0,U,733,999,25114,.95031427E-4,.218E-5,0
SL-3 R/B,1964-053B,2026-06-06T10:46:57.830880,14.61421869,.00811948,65.0772,70.9968,264.4590,94.7245,0,U,877,999,27976,.59214219E-4,.181E-5,0
SL-8 R/B,1967-045B,2026-06-07T07:53:16.779552,14.45678317,.00638276,74.0093,180.6715,167.5659,192.7093,0,U,2802,999,10197,.86292198E-4,.285E-5,0
SL-8 R/B,1968-040B,2026-06-06T19:18:49.701024,15.03764107,.00259862,74.0294,131.5232,286.4058,73.4274,0,U,3230,999,10340,.28015587E-3,.3834E-4,0
OAO 2,1968-110A,2026-06-07T04:33:01.541088,14.47348055,.0005788,34.9922,125.5011,200.6413,159.4044,0,U,3597,999,3207,.6295E-4,.215E-5,0
ISIS 1,1969-009A,2026-06-07T04:33:52.727040,11.30432534,.1705978,88.4419,145.4983,268.4331,72.1567,0,U,3669,999,35864,.62817E-4,.84E-6,0
SERT 2,1970-009A,2026-06-07T01:59:04.633728,13.58738431,.0004117,99.2839,96.3381,304.8821,65.7663,0,U,4327,999,79203,.50993E-4,-.4E-7,0
SL-3 R/B,1971-028B,2026-06-07T02:35:30.405120,15.68790936,.0013682,81.2334,300.9472,318.0554,41.9654,0,U,5118,999,266,.44327E-3,.51122E-3,0
ASTEX 1,1971-089A,2026-06-06T14:07:57.707904,14.50843418,.00171125,92.7001,180.4425,137.7669,222.4859,0,U,5560,999,87519,.10874549E-3,.428E-5,0
SL-8 R/B,1971-119B,2026-06-07T06:54:44.999712,14.39440351,.05438414,73.8878,8.0184,315.9809,39.9218,0,U,5730,999,66837,.24881246E-3,.4835E-4,0
OAO 3 (COPERNICUS),1972-065A,2026-06-07T05:51:27.709344,14.60054945,.00066046,35.0040,147.0602,178.4987,198.7989,0,U,6153,999,85929,.69683579E-4,.319E-5,0
ATLAS CENTAUR R/B,1972-065B,2026-06-06T16:07:00.092640,14.77899624,.00330509,35.0000,144.1894,38.6057,321.6999,0,U,6155,999,85443,.16450054E-3,.1189E-4,0
SL-8 R/B,1975-112B,2026-06-06T14:34:18.778656,14.38241224,.00167868,74.0602,215.3374,283.5355,76.3929,0,U,8459,999,64465,.65609229E-4,.173E-5,0
SL-3 R/B,1977-057B,2026-06-07T00:03:13.370112,15.47670063,.0005961,97.5843,334.0518,329.6838,30.4066,0,U,10114,999,68213,.24356E-3,.12498E-3,0
SEASAT 1,1978-064A,2026-06-07T03:23:01.209408,14.46235584,.0002092,108.0163,313.2009,241.4052,118.6883,0,U,10967,999,51944,.12749E-3,.319E-5,0
SL-14 R/B,1979-011B,2026-06-06T20:20:21.653376,14.92004794,.0017363,82.5244,11.9674,117.0799,243.2195,0,U,11267,999,54207,.50350787E-4,.538E-5,0
SL-8 R/B,1979-089B,2026-06-07T01:53:33.580896,14.42399353,.0014828,74.0695,285.5692,73.4553,286.8231,0,U,11574,999,44899,.8095E-4,.242E-5,0
SL-14 R/B,1980-005B,2026-06-06T15:37:03.766656,14.91020453,.00145986,82.5149,222.8343,222.5186,137.4903,0,U,11672,999,48974,.46682737E-4,.487E-5,0
SL-8 R/B,1981-003B,2026-06-06T15:26:54.761568,15.13912570,.02504609,82.9375,207.5660,228.1522,129.8094,0,U,12139,999,32812,.42877993E-3,.17312E-3,0
SL-3 R/B,1981-046B,2026-06-06T21:15:17.200800,15.43984898,.0019337,81.2301,182.4765,71.6445,288.6900,0,U,12465,999,45218,.27086E-3,.12458E-3,0
SL-3 R/B,1981-103B,2026-06-07T03:04:46.461792,15.22201041,.0012564,81.1581,108.4492,351.8701,8.2325,0,U,12904,999,98683,.24201E-3,.5593E-4,0
SL-3 R/B,1982-013B,2026-06-06T23:19:23.487168,15.22723687,.00207862,81.1745,56.0472,236.6827,123.2415,0,U,13068,999,41793,.15846312E-3,.3742E-4,0
SL-3 R/B,1982-039B,2026-06-07T03:57:05.150880,15.10477779,.00300191,81.1423,112.6685,28.7482,331.5389,0,U,13154,999,39514,.21302205E-3,.3566E-4,0
SL-3 R/B,1982-079B,2026-06-07T01:58:18.726816,15.25704782,.00229445,81.1459,87.4381,220.3994,139.5537,0,U,13403,999,39132,.2252438E-3,.5808E-4,0
SL-14 R/B,1982-092B,2026-06-07T00:21:11.407104,14.86740552,.00205696,82.5687,57.8215,9.3840,1.7548,0,U,13553,999,34220,.48446306E-4,.457E-5,0
SL-3 R/B,1983-010B,2026-06-06T23:34:43.686912,15.48961482,.0015968,81.1019,252.5298,96.6097,263.6967,0,U,13819,999,37175,.31454E-3,.17125E-3,0
SL-3 R/B,1983-075B,2026-06-07T06:14:25.932768,15.40313349,.00187736,97.6107,166.3601,267.9752,91.9344,0,U,14208,999,34393,.25310542E-3,.10176E-3,0
COSMOS 1536,1984-013A,2026-06-06T20:39:24.181056,15.24945151,.00134243,82.5450,19.1295,335.2123,24.8468,0,U,14699,999,28620,.23499119E-3,.5899E-4,0
SL-14 R/B,1984-027B,2026-06-07T05:59:21.504480,14.86052427,.00189402,82.5406,161.0364,41.0726,319.1912,0,U,14820,999,26093,.5267254E-4,.487E-5,0
SL-8 R/B,1985-006B,2026-06-06T14:24:52.772256,14.37830311,.0018475,74.0452,97.5445,346.6650,186.0585,0,U,15483,999,16680,.10739E-3,.298E-5,0
