ATLAS CENTAUR 2         
1 00694U 63047A   26158.03386764  .00002016  00000+0  23383-3 0  9998
2 00694  30.3536  56.1731 0546026 147.9577 215.5453 14.12496082144266
THOR AGENA D R/B        
1 00733U 64002A   26158.31921683  .00000218  00000+0  95031-4 0  9992
2 00733  99.1157 176.5187 0032848 359.5959   0.5192 14.34061732251143
SL-3 R/B                
1 00877U 64053B   26157.44928045  .00000181  00000+0  59214-4 0  9991
2 00877  65.0772  70.9968 0081194 264.4590  94.7245 14.61421869279767
SL-8 R/B                
1 02802U 67045B   26158.32866643  .00000285  00000+0  86292-4 0  9999
2 02802  74.0093 180.6715 0063827 167.5659 192.7093 14.45678317101975
SL-8 R/B                
1 03230U 68040B   26157.80474191  .00003834  00000+0  28016-3 0  9998
2 03230  74.0294 131.5232 0025986 286.4058  73.4274 15.03764107103405
OAO 2                   
1 03597U 68110A   26158.18960117  .00000215  00000+0  62950-4 0  9998
2 03597  34.9922 125.5011 0005788 200.6413 159.4044 14.47348055 32074
ISIS 1                  
1 03669U 69009A   26158.19019360  .00000084  00000+0  62817-4 0  9998
2 03669  88.4419 145.4983 1705978 268.4331  72.1567 11.30432534358648
SERT 2                  
1 04327U 70009A   26158.08269252 -.00000004  00000+0  50993-4 0  9992
2 04327  99.2839  96.3381 0004117 304.8821  65.7663 13.58738431792034
SL-3 R/B                
1 05118U 71028B   26158.10799080  .00051122  00000+0  44327-3 0  9992
2 05118  81.2334 300.9472 0013682 318.0554  41.9654 15.68790936  2666
ASTEX 1                 
1 05560U 71089A   26157.58886236  .00000428  00000+0  10875-3 0  9995
2 05560  92.7001 180.4425 0017112 137.7669 222.4859 14.50843418875192
SL-8 R/B                
1 05730U 71119B   26158.28802083  .00004835  00000+0  24881-3 0  9992
2 05730  73.8878   8.0184 0543841 315.9809  39.9218 14.39440351668375
OAO 3 (COPERNICUS)      
1 06153U 72065A   26158.24407071  .00000319  00000+0  69684-4 0  9991
2 06153  35.0040 147.0602 0006604 178.4987 198.7989 14.60054945859291
ATLAS CENTAUR R/B       
1 06155U 72065B   26157.67152885  .00001189  00000+0  16450-3 0  9997
2 06155  35.0000 144.1894 0033050  38.6057 321.6999 14.77899624854438
SL-8 R/B                
1 08459U 75112B   26157.60716179  .00000173  00000+0  65609-4 0  9990
2 08459  74.0602 215.3374 0016786 283.5355  76.3929 14.38241224644653
SL-3 R/B                
1 10114U 77057B   26158.00223808  .00012498  00000+0  24356-3 0  9994
2 10114  97.5843 334.0518 0005961 329.6838  30.4066 15.47670063682137
SEASAT 1                
1 10967U 78064A   26158.14098622  .00000319  00000+0  12749-3 0  9990
2 10967 108.0163 313.2009 0002092 241.4052 118.6883 14.46235584519443
SL-14 R/B               
1 11267U 79011B   26157.84747284  .00000538  00000+0  50351-4 0  9993
2 11267  82.5244  11.9674 0017363 117.0799 243.2195 14.92004794542070
SL-8 R/B                
1 11574U 79089B   26158.07886089  .00000242  00000+0  80950-4 0  9992
2 11574  74.0695 285.5692 0014828  73.4553 286.8231 14.42399353448995
SL-14 R/B               
1 11672U 80005B   26157.65073804  .00000487  00000+0  46683-4 0  9993
2 11672  82.5149 222.8343 0014598 222.5186 137.4903 14.91020453489743
SL-8 R/B                
1 12139U 81003B   26157.64368937  .00017312  00000+0  42878-3 0  9990
2 12139  82.9375 207.5660 0250460 228.1522 129.8094 15.13912570328120
SL-3 R/B                
1 12465U 81046B   26157.88561575  .00012458  00000+0  27086-3 0  9998
2 12465  81.2301 182.4765 0019337  71.6445 288.6900 15.43984898452180
SL-3 R/B                
1 12904U 81103B   26158.12831553  .00005593  00000+0  24201-3 0  9992
2 12904  81.1581 108.4492 0012564 351.8701   8.2325 15.22201041986835
SL-3 R/B                
1 13068U 82013B   26157.97179962  .00003742  00000+0  15846-3 0  9995
2 13068  81.1745  56.0472 0020786 236.6827 123.2415 15.22723687417932
SL-3 R/B                
1 13154U 82039B   26158.16464295  .00003566  00000+0  21302-3 0  9995
2 13154  81.1423 112.6685 0030019  28.7482 331.5389 15.10477779395140
SL-3 R/B                
1 13403U 82079B   26158.08216119  .00005808  00000+0  22524-3 0  9995
2 13403  81.1459  87.4381 0022944 220.3994 139.5537 15.25704782391324
SL-14 R/B               
1 13553U 82092B   26158.01471536  .00000457  00000+0  48446-4 0  9992
2 13553  82.5687  57.8215 0020569   9.3840   1.7548 14.86740552342207
SL-3 R/B                
1 13819U 83010B   26157.98245008  .00017125  00000+0  31454-3 0  9996
2 13819  81.1019 252.5298 0015968  96.6097 263.6967 15.48961482371753
SL-3 R/B                
1 14208U 83075B   26158.26002237  .00010176  00000+0  25311-3 0  9991
2 14208  97.6107 166.3601 0018773 267.9752  91.9344 15.40313349343939
COSMOS 1536             
1 14699U 84013A   26157.86069654  .00005899  00000+0  23499-3 0  9990
2 14699  82.5450  19.1295 0013424 335.2123  24.8468 15.24945151286202
SL-14 R/B               
1 14820U 84027B   26158.24955445  .00000487  00000+0  52673-4 0  9991
2 14820  82.5406 161.0364 0018940  41.0726 319.1912 14.86052427260930
SL-8 R/B                
1 15483U 85006B   26157.60061079  .00000298  00000+0  10739-3 0  9991
2 15483  74.0452  97.5445 0018475 346.6650 186.0585 14.37830311166809
